CZ-4B R/B               
1 28059U 03049C   18234.80802361 -.00000014  00000-0  83818-5 0  9995
2 28059  98.5125 133.1267 0050465  11.2551  28.6025 14.52534268786334
CZ-2C R/B               
1 28222U 04012C   18234.89950612  .00000511  00000-0  34819-4 0  9997
2 28222  97.5806 190.0540 0048688 144.2722 245.9686 15.09789005785709
SL-16 R/B               
1 28353U 04021B   18234.47357412 -.00000174  00000-0 -66456-4 0  9994
2 28353  70.9980 253.9694 0007470 265.8705  94.1564 14.14207877733132
CZ-2C R/B               
1 28480U 04046B   18234.74774551 -.00000031  00000-0  33685-5 0  9999
2 28480  98.1726 307.7010 0142578  31.1355 126.6115 14.25679888715722
ARIANE 5 R/B            
1 28499U 04049H   18234.91797892  .00000003  00000-0  80003-5 0  9998
2 28499  98.0590 324.8333 0090915 260.9047 231.6908 14.79915460737803
CZ-2D R/B               
1 28738U 05024B   18234.66356159  .00000177  00000-0  14131-4 0  9997
2 28738  97.4497 266.8472 0011041 325.3606  34.6904 15.11597753720983
SUZAKU (ASTRO-EII)      
1 28773U 05025A   18234.83814021  .00000677  00000-0  29390-4 0  9991
2 28773  31.3836  15.2424 0004708   0.8990 359.1665 15.16649314722923
ALOS (DAICHI)           
1 28931U 06002A   18235.07213322  .00000115  00000-0  31351-4 0  9994
2 28931  97.8174 245.1211 0002188  47.7647 312.3742 14.62520397670588
H-2A R/B                
1 28932U 06002B   18234.90012465  .00000132  00000-0  18622-4 0  9996
2 28932  98.2365 181.0329 0088898 337.7926  66.1277 14.91769784682057
AKARI (ASTRO-F)         
1 28939U 06005A   18234.76034909  .00001986  00000-0  59352-4 0  9990
2 28939  98.1993 127.0938 0102153 125.4636 235.6190 15.31055550679100
RESURS-DK 1             
1 29228U 06021A   18235.37771490  .00000035  00000-0  10008-4 0  9990
2 29228  69.9348  78.3156 0003643 358.3664   1.7484 15.02347317673008
GENESIS 1               
1 29252U 06029A   18234.78216614  .00000040  00000-0  12449-4 0  9998
2 29252  64.5060 315.1668 0047223 280.0680  79.5116 15.17392726667309
CZ-4B R/B               
1 29507U 06046C   18234.67733801 -.00000740  00000-0 -52432-4 0  9995
2 29507  97.7848 247.5478 0048771 230.8278 128.8608 15.00346629645736
CZ-2C R/B               
1 31114U 07010B   18234.79477307 -.00000015  00000-0  11662-4 0  9997
2 31114  98.3519 118.9205 0060652  42.7457 317.8414 14.19276480588743
COSMO-SKYMED 1          
1 31598U 07023A   18235.37634168 -.00001969  00000-0 -24092-3 0  9992
2 31598  97.8894  57.9956 0001379  84.0496 276.0822 14.82150433606465
GENESIS 2               
1 31789U 07028A   18234.84147824  .00000273  00000-0  24234-4 0  9992
2 31789  64.5052 354.5327 0024444 323.4960  36.4494 15.16625591614356
COSMOS 2428             
1 31792U 07029A   18235.35398816  .00000014  00000-0  33193-4 0  9990
2 31792  70.9661 225.8038 0008414 323.3597  36.6948 14.12558722575088
SL-16 R/B               
1 31793U 07029B   18234.91116834 -.00000296  00000-0 -12966-3 0  9998
2 31793  70.9743 202.3035 0002673 262.1991 128.7868 14.14401917575760
KORONAS-FOTON           
1 33504U 09003A   18234.91394061 -.00000030  00000-0 -33355-5 0  9997
2 33504  82.4445 163.8325 0020794  60.0931 300.2363 15.15218270526746
H-2A R/B                
1 38341U 12025E   18234.85582664  .00000088  00000-0  17902-4 0  9990
2 38341  98.4247 340.5331 0055192 208.1529 151.6697 14.83782386338899
CUSAT 2 & FALCON 9 R/B  
1 39271U 13055G   18234.51790790  .00006304  00000-0  15740-3 0  9995
2 39271  80.9657 258.9947 0612193   1.2760 358.9813 14.42273684254695
ALOS-2                  
1 39766U 14029A   18235.35651870 -.00000042  00000-0  12876-5 0  9997
2 39766  97.9225 331.4800 0001487  86.6837 273.4532 14.79472238229505
SL-27 R/B               
1 40354U 14084B   18234.94429185  .00000707  00000-0  19104-4 0  9996
2 40354  74.7399 321.7856 0037585 127.3400 233.1246 15.39171486205861
ASTRO-H (HITOMI)        
1 41337U 16012A   18234.52442924  .00000213  00000-0  10358-4 0  9995
2 41337  31.0048 265.0998 0012473 340.9922  19.0247 14.98491240137670
TIANGONG-2              
1 41765U 16057A   18235.38165694  .00003022  00000-0  42026-4 0  9998
2 41765  42.7848 300.8239 0007549 358.3040 111.1806 15.59284787110513
SHENZHOU-11 MODULE      
1 41868U 16061G   18234.58299199  .00007940  00000-0  58934-4 0  9994
2 41868  42.7937 269.2402 0000495 122.4683  13.0335 15.73276185100731
